{
  "type": "FeatureCollection",
  "features": [
    {
      "type": "Feature",
      "geometry": {
        "coordinates": [
          [
            [
              106.78081055228762,
              -6.201871594364562
            ],
            [
              106.78104614777317,
              -6.201843775939892
            ],
            [
              106.78104033434732,
              -6.201775224899578
            ],
            [
              106.78080256039539,
              -6.201796362946695
            ],
            [
              106.78081055228762,
              -6.201871594364562
            ]
          ]
        ],
        "type": "Polygon"
      },
      "properties": {
        "id_tool": "A-3",
        "area_meter_square": 211.7,
        "area_hectare": 0.02
      }
    },
    {
      "type": "Feature",
      "geometry": {
        "coordinates": [
          [
            [
              106.78103883262486,
              -6.201773749379143
            ],
            [
              106.78124842576943,
              -6.201754385575569
            ],
            [
              106.78125633354875,
              -6.201836622695936
            ],
            [
              106.78104576964313,
              -6.201846969056206
            ],
            [
              106.78104415187073,
              -6.201831464539964
            ],
            [
              106.78104405610901,
              -6.201813172757284
            ],
            [
              106.78103883262486,
              -6.201773749379143
            ]
          ]
        ],
        "type": "Polygon"
      },
      "properties": {
        "id_tool": "A-4",
        "area_meter_square": 202,
        "area_hectare": 0.02
      }
    },
    {
      "type": "Feature",
      "geometry": {
        "coordinates": [
          [
            [
              106.78125885558592,
              -6.201832827951932
            ],
            [
              106.78124720137214,
              -6.201753458417613
            ],
            [
              106.78143480719257,
              -6.201737406364984
            ],
            [
              106.78143868149505,
              -6.201814927710657
            ],
            [
              106.78125885558592,
              -6.201832827951932
            ]
          ]
        ],
        "type": "Polygon"
      },
      "properties": {
        "id_tool": "A-5",
        "area_meter_square": 179.2,
        "area_hectare": 0.02
      }
    },
    {
      "type": "Feature",
      "geometry": {
        "coordinates": [
          [
            [
              106.78096329189083,
              -6.201910677718473
            ],
            [
              106.78097999040529,
              -6.20200962243419
            ],
            [
              106.78110665712188,
              -6.201997664483457
            ],
            [
              106.78109347066658,
              -6.201887220188695
            ],
            [
              106.78096329189083,
              -6.201910677718473
            ]
          ]
        ],
        "type": "Polygon"
      },
      "properties": {
        "id_tool": "A-6",
        "area_meter_square": 168.9,
        "area_hectare": 0.02
      }
    },
    {
      "type": "Feature",
      "geometry": {
        "coordinates": [
          [
            [
              106.78144407784617,
              -6.2018500463945685
            ],
            [
              106.78155886846503,
              -6.201840856590181
            ],
            [
              106.78156664557599,
              -6.201944047388707
            ],
            [
              106.78144343678997,
              -6.20195487838177
            ],
            [
              106.78144407784617,
              -6.2018500463945685
            ]
          ]
        ],
        "type": "Polygon"
      },
      "properties": {
        "id_tool": "A-7",
        "area_meter_square": 152.9,
        "area_hectare": 0.02
      }
    },
    {
      "type": "Feature",
      "geometry": {
        "coordinates": [
          [
            [
              106.78143831003143,
              -6.201814189231058
            ],
            [
              106.78143519877949,
              -6.201735064323685
            ],
            [
              106.78159972240178,
              -6.201720975165657
            ],
            [
              106.78160363086454,
              -6.201798764325332
            ],
            [
              106.78143831003143,
              -6.201814189231058
            ]
          ]
        ],
        "type": "Polygon"
      },
      "properties": {
        "id_tool": "A-8",
        "area_meter_square": 160,
        "area_hectare": 0.02
      }
    },
    {
      "type": "Feature",
      "geometry": {
        "coordinates": [
          [
            [
              106.78159863602934,
              -6.2017194398762
            ],
            [
              106.7816439458187,
              -6.20171727347531
            ],
            [
              106.78165276914297,
              -6.20179191737185
            ],
            [
              106.78160483987915,
              -6.2018012386057535
            ],
            [
              106.78159863602934,
              -6.2017194398762
            ]
          ]
        ],
        "type": "Polygon"
      },
      "properties": {
        "id_tool": "A-9",
        "area_meter_square": 45.5,
        "area_hectare": 0
      }
    },
    {
      "type": "Feature",
      "geometry": {
        "coordinates": [
          [
            [
              106.78164362049074,
              -6.201714052027839
            ],
            [
              106.78169298820768,
              -6.201710668692783
            ],
            [
              106.78170136627477,
              -6.201786571469441
            ],
            [
              106.7816533900372,
              -6.2017938614336146
            ],
            [
              106.78164362049074,
              -6.201714052027839
            ]
          ]
        ],
        "type": "Polygon"
      },
      "properties": {
        "id_tool": "A-10",
        "area_meter_square": 47.3,
        "area_hectare": 0
      }
    },
    {
      "type": "Feature",
      "geometry": {
        "coordinates": [
          [
            [
              106.78169478072505,
              -6.201710187737859
            ],
            [
              106.78187746058961,
              -6.201691191251939
            ],
            [
              106.78188847170765,
              -6.201773672991536
            ],
            [
              106.78170225622836,
              -6.2017877180555985
            ],
            [
              106.78169478072505,
              -6.201710187737859
            ]
          ]
        ],
        "type": "Polygon"
      },
      "properties": {
        "id_tool": "A-11",
        "area_meter_square": 183.7,
        "area_hectare": 0.02
      }
    },
    {
      "type": "Feature",
      "geometry": {
        "coordinates": [
          [
            [
              106.7809932555839,
              -6.2021519936913165
            ],
            [
              106.78098752104182,
              -6.202087253889957
            ],
            [
              106.78114720623813,
              -6.2020752962428105
            ],
            [
              106.78114937142283,
              -6.202136936740885
            ],
            [
              106.7809932555839,
              -6.2021519936913165
            ]
          ]
        ],
        "type": "Polygon"
      },
      "properties": {
        "id_tool": "A-12",
        "area_meter_square": 123.6,
        "area_hectare": 0.01
      }
    },
    {
      "type": "Feature",
      "geometry": {
        "coordinates": [
          [
            [
              106.7811490520071,
              -6.202136256201953
            ],
            [
              106.78128650244986,
              -6.2021214909585325
            ],
            [
              106.78128144167175,
              -6.2020681873028565
            ],
            [
              106.78114507183966,
              -6.202074857458044
            ],
            [
              106.7811490520071,
              -6.202136256201953
            ]
          ]
        ],
        "type": "Polygon"
      },
      "properties": {
        "id_tool": "A-13",
        "area_meter_square": 97.3,
        "area_hectare": 0.01
      }
    }
  ]
}
