{"type":"FeatureCollection","features":[{"type":"Feature","geometry":{"coordinates":[[[106.79758096410796,-6.2069888585621555],[106.79759143859042,-6.2069642056068375],[106.79773235376797,-6.207033983249289],[106.79772308499321,-6.207059242997559],[106.79758096410796,-6.2069888585621555]]],"type":"Polygon"},"properties":{"id_tool":"Tap in","area_meter_square":52,"area_hectare":0.01}},{"type":"Feature","geometry":{"coordinates":[[[106.79742632066763,-6.207197842001733],[106.79748696989805,-6.207067584612943],[106.79750918922429,-6.2070801415633525],[106.79745075502598,-6.207208623498332],[106.79742632066763,-6.207197842001733]]],"type":"Polygon"},"properties":{"id_tool":"A-2","area_meter_square":45.7,"area_hectare":0}},{"type":"Feature","geometry":{"coordinates":[[[106.79748929312137,-6.207052148859432],[106.7975134627822,-6.207066883127155],[106.79752331868247,-6.207048406932586],[106.79749891725226,-6.207034627336057],[106.79748929312137,-6.207052148859432]]],"type":"Polygon"},"properties":{"id_tool":"A-3","area_meter_square":7.1,"area_hectare":0}},{"type":"Feature","geometry":{"coordinates":[[[106.79760893778274,-6.207281997417283],[106.79766231796623,-6.2071594356464175],[106.79768025903877,-6.207167555804247],[106.79762772663292,-6.207291668412793],[106.79760893778274,-6.207281997417283]]],"type":"Polygon"},"properties":{"id_tool":"A-4","area_meter_square":33.7,"area_hectare":0}},{"type":"Feature","geometry":{"coordinates":[[[106.79766633551816,-6.207146971452772],[106.79768290799137,-6.207155818746912],[106.79769022928343,-6.207136623769202],[106.79767236184512,-6.207128275162248],[106.79766633551816,-6.207146971452772]]],"type":"Polygon"},"properties":{"id_tool":"A-5","area_meter_square":4.7,"area_hectare":0}},{"type":"Feature","geometry":{"coordinates":[[[106.7974466126455,-6.207334000434585],[106.79754521000785,-6.207106679630883],[106.79760915506478,-6.2071361280885355],[106.7975070944712,-6.2073630156497615],[106.7974466126455,-6.207334000434585]]],"type":"Polygon"},"properties":{"id_tool":"A-6","area_meter_square":210.2,"area_hectare":0.02}},{"type":"Feature","geometry":{"coordinates":[[[106.79722892681866,-6.207614055789236],[106.79736746861607,-6.207310498079778],[106.79740503389843,-6.207324667536469],[106.7972692505229,-6.2076312568523235],[106.79722892681866,-6.207614055789236]]],"type":"Polygon"},"properties":{"id_tool":"A-7","area_meter_square":172.9,"area_hectare":0.02}},{"type":"Feature","geometry":{"coordinates":[[[106.79740060107503,-6.207684026894299],[106.79752535012256,-6.207379339513068],[106.79757043114859,-6.2073961760087],[106.79743768925272,-6.207700666287465],[106.79740060107503,-6.207684026894299]]],"type":"Polygon"},"properties":{"id_tool":"A-8","area_meter_square":180.7,"area_hectare":0.02}},{"type":"Feature","geometry":{"coordinates":[[[106.79709124579318,-6.207938963536776],[106.79728038817672,-6.208020291387072],[106.7973043944649,-6.207977979307898],[106.79711055685965,-6.207903933488467],[106.79709124579318,-6.207938963536776]]],"type":"Polygon"},"properties":{"id_tool":"A-9","area_meter_square":112,"area_hectare":0.01}}]}