{"type":"FeatureCollection","features":[{"type":"Feature","geometry":{"coordinates":[106.7972025226635,-6.20769306662541],"type":"Point"},"properties":{"Access To":"Lift Peron 1"}},{"type":"Feature","geometry":{"coordinates":[106.79739741216662,-6.207779279536837],"type":"Point"},"properties":{"Access To":"Lift Peron 2"}},{"type":"Feature","geometry":{"coordinates":[106.79728495622027,-6.207529749356823],"type":"Point"},"properties":{"Access To":"Eskalator Peron 1.1"}},{"type":"Feature","geometry":{"coordinates":[106.79746098577397,-6.207615556653764],"type":"Point"},"properties":{"Access To":"Eskalator Peron 2.2"}},{"type":"Feature","geometry":{"coordinates":[106.79743076706302,-6.207210668468278],"type":"Point"},"properties":{"Access To":"Tangga Peron 1.1"}},{"type":"Feature","geometry":{"coordinates":[106.79745260789002,-6.207220541648155],"type":"Point"},"properties":{"Access To":"Tangga Peron 1.2"}},{"type":"Feature","geometry":{"coordinates":[106.79759747082608,-6.207283886724412],"type":"Point"},"properties":{"Access To":"Tangga Peron 2.1"}},{"type":"Feature","geometry":{"coordinates":[106.79761706054609,-6.207294054106811],"type":"Point"},"properties":{"Access To":"Tangga Peron 2.2"}},{"type":"Feature","geometry":{"coordinates":[106.7970826624661,-6.2079270889352784],"type":"Point"},"properties":{"Access To":"EntryExit1"}},{"type":"Feature","geometry":{"coordinates":[106.79729625882214,-6.208023759074621],"type":"Point"},"properties":{"Access To":"EntryExit2"}},{"type":"Feature","geometry":{"coordinates":[106.79756956056474,-6.207021976002494],"type":"Point"},"properties":{"Access To":"Pintu Masuk P3K"}},{"type":"Feature","geometry":{"coordinates":[106.7975415288405,-6.207082644159186],"type":"Point"},"properties":{"Access To":"Pintu Masuk Toilet Pria"}},{"type":"Feature","geometry":{"coordinates":[106.79753757630215,-6.2070907523502825],"type":"Point"},"properties":{"Access To":"Pintu Masuk Musala Pria"}},{"type":"Feature","geometry":{"coordinates":[106.79769946009503,-6.207047865302627],"type":"Point"},"properties":{"Access To":"Pintu Masuk Ruang Laktasi"}},{"type":"Feature","geometry":{"coordinates":[106.7976966921716,-6.207053756171732],"type":"Point"},"properties":{"Access To":"Pintu Masuk Toilet Difabel"}},{"type":"Feature","geometry":{"coordinates":[106.79766215128308,-6.207122087067688],"type":"Point"},"properties":{"Access To":"Pintu Masuk Toilet Wanita"}},{"type":"Feature","geometry":{"coordinates":[106.79765853759784,-6.207129100925528],"type":"Point"},"properties":{"Access To":"Pintu Masuk Musala Wanita"}},{"type":"Feature","geometry":{"coordinates":[106.79758215895305,-6.207242574075124],"type":"Point"},"properties":{"Access To":"Vending Machine 1"}},{"type":"Feature","geometry":{"coordinates":[106.79746152248532,-6.207399080319959],"type":"Point"},"properties":{}},{"type":"Feature","geometry":{"coordinates":[106.79760183449002,-6.207103818662631],"type":"Point"},"properties":{}}]}