{"type":"FeatureCollection","features":[{"type":"Feature","geometry":{"coordinates":[[[106.79715542021972,-6.207766230210112],[106.79719584608637,-6.207785367745132],[106.79722664674796,-6.207712645109382],[106.79718814592235,-6.207694464449332],[106.79715542021972,-6.207766230210112]]],"type":"Polygon"},"properties":{"Fasilitas":"Lift Peron 1"}},{"type":"Feature","geometry":{"coordinates":[[[106.79736909980636,-6.207871486642418],[106.79732674889686,-6.207849478480327],[106.79736524972435,-6.207772928347069],[106.797405675591,-6.207792065881904],[106.79736909980636,-6.207871486642418]]],"type":"Polygon"},"properties":{"Fasilitas":"Tempat informasi & Lift Peron 2"}},{"type":"Feature","geometry":{"coordinates":[[[106.79726298464499,-6.20752870939863],[106.79722658645824,-6.20761830978617],[106.79726471789166,-6.207634679086652],[106.79730458257171,-6.207546801786066],[106.79726298464499,-6.20752870939863]]],"type":"Polygon"},"properties":{"Fasilitas":"Eskalator Peron 1"}},{"type":"Feature","geometry":{"coordinates":[[[106.79743457609362,-6.207608832822686],[106.79747704064528,-6.207629509834149],[106.79743804258857,-6.207715664036428],[106.79739384479012,-6.207693263945558],[106.79743457609362,-6.207608832822686]]],"type":"Polygon"},"properties":{"Fasilitas":"Eskalator Peron 2"}},{"type":"Feature","geometry":{"coordinates":[[[106.79759723929624,-6.207601750986569],[106.79754439260256,-6.207574190674933],[106.79765701670613,-6.207336482930657],[106.79771072973892,-6.207359736953265],[106.79759723929624,-6.207601750986569]]],"type":"Polygon"},"properties":{"Fasilitas":"Ruko Ruko,2"}},{"type":"Feature","geometry":{"coordinates":[[[106.79720153413376,-6.208015027899606],[106.79714142818716,-6.207988215441901],[106.79715838114646,-6.207954508349914],[106.79721771650424,-6.207979788669093],[106.79720153413376,-6.208015027899606]]],"type":"Polygon"},"properties":{"Fasilitas":"Booth Rica Rica"}},{"type":"Feature","geometry":{"coordinates":[[[106.79736144176684,-6.207212468198904],[106.7972498699068,-6.2074472833595],[106.79719527091129,-6.207422503875975],[106.79730802970579,-6.207188868680063],[106.79736144176684,-6.207212468198904]]],"type":"Polygon"},"properties":{"Fasilitas":"Ruko Ruko.1"}},{"type":"Feature","geometry":{"coordinates":[[[106.79739704511428,-6.207754905422192],[106.79722912378213,-6.207685407334779],[106.79723272724237,-6.207677526107915],[106.79740100892263,-6.207746307720811],[106.79739704511428,-6.207754905422192]]],"type":"Polygon"},"properties":{"Fasilitas":"Tap In dan Tap Out"}},{"type":"Feature","geometry":{"coordinates":[[[106.79723344793649,-6.20767645139496],[106.79722696170393,-6.207694005037126],[106.79723272724237,-6.207696154461942],[106.79722664674796,-6.207712645109382],[106.79722432660611,-6.207711536633738],[106.79722991521413,-6.207697682034933],[106.79722446809063,-6.207695220557852],[106.79723203747164,-6.207675599069233],[106.79723344793649,-6.20767645139496]]],"type":"Polygon"},"properties":{"Fasilitas":"Pembatas Tap in"}},{"type":"Feature","geometry":{"coordinates":[[[106.79737648925817,-6.207777986501171],[106.79738374589118,-6.207762330222238],[106.79739053933412,-6.207764786108967],[106.79739548001913,-6.207754041604176],[106.79739702398444,-6.207754809068248],[106.79739192890213,-6.207766628024515],[106.79738467226923,-6.207764479123412],[106.79737818761896,-6.20777844698047],[106.79737648925817,-6.207777986501171]]],"type":"Polygon"},"properties":{"Fasilitas":"Pembatas Tap out"}},{"type":"Feature","geometry":{"coordinates":[[[106.79709255173424,-6.207901177860762],[106.79706794874767,-6.207952019009568],[106.79707237175569,-6.207954217545236],[106.79709669830436,-6.20790310157966],[106.79709255173424,-6.207901177860762]]],"type":"Polygon"},"properties":{"Fasilitas":"EntryExit 1"}},{"type":"Feature","geometry":{"coordinates":[[[106.79730457971863,-6.207999837160884],[106.79728052960803,-6.208050953126403],[106.7972846761802,-6.208053151663194],[106.79730872628863,-6.208002585331826],[106.79730457971863,-6.207999837160884]]],"type":"Polygon"},"properties":{"Fasilitas":"EntryExit2"}},{"type":"Feature","geometry":{"coordinates":[[[106.79745358114167,-6.20712489617749],[106.79750525899965,-6.207149436864469],[106.79752162848169,-6.207117365450635],[106.79753799796373,-6.207085294036801],[106.79748773261724,-6.207061097712341],[106.79745358114167,-6.20712489617749]]],"type":"Polygon"},"properties":{"Fasilitas":"Mushala"}},{"type":"Feature","geometry":{"coordinates":[[[106.79756316730698,-6.2070271385028235],[106.79751562861247,-6.207006010498162],[106.79748773261724,-6.207061097712341],[106.79753799796373,-6.207085294036801],[106.79755058263535,-6.207056216269812],[106.79756316730698,-6.2070271385028235]]],"type":"Polygon"},"properties":{"Fasilitas":"Toilet Pria"}},{"type":"Feature","geometry":{"coordinates":[[[106.79753716446947,-6.206957047727002],[106.79751569917835,-6.20700562904527],[106.79756342519732,-6.2070274225326045],[106.7975855755518,-6.206978614200551],[106.79753716446947,-6.206957047727002]]],"type":"Polygon"},"properties":{"Fasilitas":"P3K"}},{"type":"Feature","geometry":{"coordinates":[[[106.79771204755127,-6.207023444662497],[106.79769935490572,-6.2070513577323965],[106.7977370482144,-6.207071623384195],[106.79775051011029,-6.207042563203373],[106.79771204755127,-6.207023444662497]]],"type":"Polygon"},"properties":{"Fasilitas":"Ruang Laktasi"}},{"type":"Feature","geometry":{"coordinates":[[[106.79769935490572,-6.2070513577323965],[106.79768765308665,-6.207076178757248],[106.79772534182683,-6.207097588925265],[106.7977370482144,-6.207071623384195],[106.79769935490572,-6.2070513577323965]]],"type":"Polygon"},"properties":{"Fasilitas":"Toilet Difabel"}},{"type":"Feature","geometry":{"coordinates":[[[106.79768765308665,-6.207076178757248],[106.79766155479172,-6.2071263991486205],[106.79770270289794,-6.207147624414262],[106.79772534182683,-6.207097588925265],[106.79768765308665,-6.207076178757248]]],"type":"Polygon"},"properties":{"Fasilitas":"Toilet Wanita"}},{"type":"Feature","geometry":{"coordinates":[[[106.79766155479172,-6.2071263991486205],[106.79762795683888,-6.207195419231198],[106.79767205883286,-6.207216748473215],[106.79770270289794,-6.207147624414262],[106.79766155479172,-6.2071263991486205]]],"type":"Polygon"},"properties":{"Fasilitas":"Musala Wanita"}},{"type":"Feature","geometry":{"coordinates":[[[106.79762795683888,-6.207195419231198],[106.79758374485317,-6.207276265720239],[106.79763291108401,-6.207301656878215],[106.79767205883286,-6.207216748473215],[106.79762795683888,-6.207195419231198]]],"type":"Polygon"},"properties":{"Fasilitas":"Tangga Peron 2 "}},{"type":"Feature","geometry":{"coordinates":[[[106.79745358114167,-6.20712489617749],[106.79741525640281,-6.207200767556927],[106.79747190231546,-6.207229744569688],[106.79750525899965,-6.207149436864469],[106.79745358114167,-6.20712489617749]]],"type":"Polygon"},"properties":{"Fasilitas":"Tangga Peron 1"}},{"type":"Feature","geometry":{"coordinates":[[[106.79758398530123,-6.207253137448859],[106.79759071637443,-6.207256617086514],[106.79759798593278,-6.207244572187577],[106.79759125485958,-6.207240824886355],[106.79758398530123,-6.207253137448859]]],"type":"Polygon"},"properties":{"Fasilitas":"Naruto Shippuden"}},{"type":"Feature","geometry":{"coordinates":[[[106.79759947161892,-6.207227550440919],[106.79759350715602,-6.2072374329328],[106.79759909883956,-6.207241015335626],[106.79760568460131,-6.207230885782394],[106.79759947161892,-6.207227550440919]]],"type":"Polygon"},"properties":{"Fasilitas":"Cuties Catz"}},{"type":"Feature","geometry":{"coordinates":[[[106.79760590414662,-6.207216184038174],[106.79760072861814,-6.207225004355806],[106.79760682834734,-6.207228679488125],[106.79761292807655,-6.207219124144061],[106.79760590414662,-6.207216184038174]]],"type":"Polygon"},"properties":{"Fasilitas":"Teh Pucuk Harum"}},{"type":"Feature","geometry":{"coordinates":[[[106.79761084649783,-6.207204649076914],[106.79760635593044,-6.207213354344233],[106.79761421442231,-6.207217372160514],[106.7976193785733,-6.207207774045315],[106.79761084649783,-6.207204649076914]]],"type":"Polygon"},"properties":{"Fasilitas":"Sprite"}},{"type":"Feature","geometry":{"coordinates":[[[106.79761824700262,-6.207192374336316],[106.79761256534795,-6.207201788245484],[106.79762014088811,-6.207206118644521],[106.79762601193153,-6.207196328178583],[106.79761824700262,-6.207192374336316]]],"type":"Polygon"},"properties":{"Fasilitas":"Air Minum Gratis"}},{"type":"Feature","geometry":{"coordinates":[[[106.79758096883171,-6.207256184266242],[106.79757437971165,-6.2072677369506835],[106.79758336487646,-6.207272262744212],[106.79759043320581,-6.207260710059842],[106.79758096883171,-6.207256184266242]]],"type":"Polygon"},"properties":{"Fasilitas":"Kursi Pijat"}},{"type":"Feature","geometry":{"coordinates":[[[106.79756567991956,-6.207028769250186],[106.79755933467325,-6.207042895724399],[106.7975561620501,-6.207049958961505],[106.79755298942695,-6.207057022198612],[106.79755727917097,-6.20705791065636],[106.79757032714446,-6.207030368472161],[106.79756567991956,-6.207028769250186]]],"type":"Polygon"},"properties":{"Fasilitas":"Kursi Musala Pria"}},{"type":"Feature","geometry":{"coordinates":[[[106.79750999662997,-6.20714255270677],[106.79750594114216,-6.207149685735089],[106.7975106205497,-6.207152476919163],[106.79751467603757,-6.207144723628872],[106.79750999662997,-6.20714255270677]]],"type":"Polygon"},"properties":{"Fasilitas":"Alat Pemadam Api Ringan"}},{"type":"Feature","geometry":{"coordinates":[[[106.79764322277475,-6.207147387491901],[106.79763185405062,-6.207170586488317],[106.79763604252753,-6.207172668450127],[106.79764771042875,-6.207149172030697],[106.79764322277475,-6.207147387491901]]],"type":"Polygon"},"properties":{"Fasilitas":"Kursi Musala Wanita"}},{"type":"Feature","geometry":{"coordinates":[[[106.79755004843196,-6.207061093194071],[106.79754203318134,-6.207079927042514],[106.7975459904543,-6.207081061952792],[106.79755384023372,-6.20706226806297],[106.79755004843196,-6.207061093194071]]],"type":"Polygon"},"properties":{"Fasilitas":"Sendal Pria"}},{"type":"Feature","geometry":{"coordinates":[[[106.79769332875435,-6.207057359904596],[106.79769160788754,-6.207060781462758],[106.79769321402875,-6.207061807930515],[106.79769550851933,-6.2070582723203955],[106.79769332875435,-6.207057359904596]]],"type":"Polygon"},"properties":{"Fasilitas":"Tempat Kursi Depan Toilet Difabel"}},{"type":"Feature","geometry":{"coordinates":[[[106.79769528216406,-6.20705499918428],[106.79769677358183,-6.207055911600079],[106.79769562633874,-6.207057736430528],[106.79769390546977,-6.207056709963908],[106.79769528216406,-6.20705499918428]]],"type":"Polygon"},"properties":{"Fasilitas":"Tempat Cas"}},{"type":"Feature","geometry":{"coordinates":[[[106.79766456676555,-6.207114483485199],[106.79766349789367,-6.207117033737731],[106.79766499431423,-6.207117565040576],[106.79766638384666,-6.207114908527487],[106.79766456676555,-6.207114483485199]]],"type":"Polygon"},"properties":{"Fasilitas":"Tempat Sampah Depan Toilet Wanita"}},{"type":"Feature","geometry":{"coordinates":[[[106.79740631989523,-6.207218791194009],[106.79740140494147,-6.207228807780254],[106.79740681139077,-6.207231006543822],[106.79741246358788,-6.20722025703526],[106.79740631989523,-6.207218791194009]]],"type":"Polygon"},"properties":{"Fasilitas":"Tempat Sampah Depan Peron 1"}},{"type":"Feature","geometry":{"coordinates":[[[106.79721605274591,-6.207641770110442],[106.79720512968004,-6.207664302574784],[106.79721441428677,-6.207668646182441],[106.79722479119914,-6.207644213389344],[106.79721605274591,-6.207641770110442]]],"type":"Polygon"},"properties":{"Fasilitas":"ATM"}},{"type":"Feature","geometry":{"coordinates":[[[106.79745452854144,-6.207366353436981],[106.79744383929716,-6.20738797301432],[106.79744899962282,-6.2073909044822955],[106.79745895167599,-6.207368552038773],[106.79745452854144,-6.207366353436981]]],"type":"Polygon"},"properties":{"Fasilitas":"Tempat Sampah"}},{"type":"Feature","geometry":{"coordinates":[[[106.79744143728158,-6.207392238602779],[106.79743086064366,-6.207412949230772],[106.79743759123187,-6.207416454107161],[106.7974478473655,-6.207393194478257],[106.79744143728158,-6.207392238602779]]],"type":"Polygon"},"properties":{"Fasilitas":"Miniatur Palmerah"}},{"type":"Feature","geometry":{"coordinates":[[[106.79750297137355,-6.2072654731217085],[106.79748418885674,-6.207305788531514],[106.79749059198747,-6.20731003225886],[106.79750937450427,-6.207268443731792],[106.79750297137355,-6.2072654731217085]]],"type":"Polygon"},"properties":{"Fasilitas":"Kursi Ujung"}},{"type":"Feature","geometry":{"coordinates":[[[106.79748204415625,-6.207310170297063],[106.79745685850861,-6.20736151939218],[106.797465396017,-6.207365763119057],[106.79748887416253,-6.207313989651567],[106.79748204415625,-6.207310170297063]]],"type":"Polygon"},"properties":{"Fasilitas":"Billboard Ujung"}},{"type":"Feature","geometry":{"coordinates":[[[106.7974299089588,-6.207419007306612],[106.79743772000978,-6.207422204764228],[106.79741382738297,-6.207467882730299],[106.7974064758057,-6.2074642284930945],[106.7974299089588,-6.207419007306612]]],"type":"Polygon"},"properties":{"Fasilitas":"Kursi Depan"}},{"type":"Feature","geometry":{"coordinates":[[[106.79740706937235,-6.2074641473226535],[106.79741396147591,-6.207467344780113],[106.79739466358626,-6.207509368506862],[106.79738823095641,-6.207504343930694],[106.79740706937235,-6.2074641473226535]]],"type":"Polygon"},"properties":{"Fasilitas":"Billboard Depan"}},{"type":"Feature","geometry":{"coordinates":[[[106.7974613978966,-6.207528235029329],[106.79751092216964,-6.207553219395393],[106.79753235804804,-6.207512068673424],[106.79748135543986,-6.207487084304532],[106.7974613978966,-6.207528235029329]]],"type":"Polygon"},"properties":{"Fasilitas":"Roti'O"}},{"type":"Feature","geometry":{"coordinates":[[[106.7975294043082,-6.207502534469413],[106.79748978013913,-6.207483676006817],[106.79753175082038,-6.207396619971931],[106.79757321630973,-6.207415759563432],[106.7975294043082,-6.207502534469413]]],"type":"Polygon"},"properties":{"Fasilitas":"Indomaret Point"}},{"type":"Feature","geometry":{"coordinates":[[[106.79757808144944,-6.20729502149598],[106.79753451884488,-6.207394190790751],[106.79756898504519,-6.207412293855185],[106.79761651318017,-6.207311903544664],[106.79757808144944,-6.20729502149598]]],"type":"Polygon"},"properties":{"Fasilitas":"Bakso Malang Oassis"}},{"type":"Feature","geometry":{"coordinates":[[[106.79740145394135,-6.2072293334164215],[106.79744618548466,-6.207249091553763],[106.79741341609298,-6.20731893691638],[106.79737043213055,-6.207294180688734],[106.79740145394135,-6.2072293334164215]]],"type":"Polygon"},"properties":{"Fasilitas":"Alfamart Express"}},{"type":"Feature","geometry":{"coordinates":[[[106.79736878922012,-6.2073056947778795],[106.79736038459674,-6.207321382641638],[106.79739936291207,-6.207337704708124],[106.79740370624052,-6.207328708200187],[106.79740623932656,-6.20732323308706],[106.79739785307669,-6.207318832893765],[106.79738946682681,-6.207314432700471],[106.79737747096897,-6.2073092897735975],[106.79736878922012,-6.2073056947778795]]],"type":"Polygon"},"properties":{"Fasilitas":"Warung Teh Kocok"}},{"type":"Feature","geometry":{"coordinates":[[[106.79736316403853,-6.207326123105247],[106.7973501591195,-6.207354378740902],[106.79737885298562,-6.207367994922393],[106.79739155886944,-6.2073384730679635],[106.79736316403853,-6.207326123105247]]],"type":"Polygon"},"properties":{"Fasilitas":"Kopi Kenangan"}},{"type":"Feature","geometry":{"coordinates":[[[106.79734364552803,-6.2073635013617405],[106.79737769663728,-6.207377031804384],[106.79737053484877,-6.207391299257665],[106.79733687412852,-6.207377031804384],[106.79734364552803,-6.2073635013617405]]],"type":"Polygon"},"properties":{"Fasilitas":"Susu Bu Darmi"}},{"type":"Feature","geometry":{"coordinates":[[[106.79733303202863,-6.207386642872095],[106.79736710970104,-6.207402071622951],[106.79736107695192,-6.207414477113474],[106.79732587673101,-6.207399062516387],[106.79733303202863,-6.207386642872095]]],"type":"Polygon"},"properties":{"Fasilitas":"Creme"}},{"type":"Feature","geometry":{"coordinates":[[[106.79731597526842,-6.207418696474278],[106.79735129936847,-6.207431420023653],[106.79734745979266,-6.2074428712167276],[106.79731111180621,-6.207429129784245],[106.79731597526842,-6.207418696474278]]],"type":"Polygon"},"properties":{"Fasilitas":"Anyar Bakrey"}},{"type":"Feature","geometry":{"coordinates":[[[106.7973020351954,-6.207449009598918],[106.7973371499466,-6.2074633247485025],[106.79733032909513,-6.207476384182954],[106.79729622484217,-6.207459306460734],[106.7973020351954,-6.207449009598918]]],"type":"Polygon"},"properties":{"Fasilitas":"Roti Maryam Salman"}},{"type":"Feature","geometry":{"coordinates":[[[106.79727981304245,-6.2074845557210665],[106.79727350791694,-6.20749977838652],[106.79728161450572,-6.207502017013752],[106.7972874692644,-6.207487689798839],[106.79727981304245,-6.2074845557210665]]],"type":"Polygon"},"properties":{"Fasilitas":"Tempat Sampah Depan Eskalator Peron 1"}},{"type":"Feature","geometry":{"coordinates":[[[106.79762301685275,-6.2073017377085336],[106.79762043112788,-6.207307650008943],[106.79762508543297,-6.207309192348603],[106.79762689544015,-6.207303022991198],[106.79762301685275,-6.2073017377085336]]],"type":"Polygon"},"properties":{"Fasilitas":"Tempat Sampah Depan Peron 2 Tangga"}},{"type":"Feature","geometry":{"coordinates":[[[106.79755274051684,-6.207057638078609],[106.79755150316998,-6.207060192886587],[106.7975553103895,-6.207061422978811],[106.79755664291696,-6.207058962793468],[106.79755274051684,-6.207057638078609]]],"type":"Polygon"},"properties":{"Fasilitas":"Tempat Sampah Depan Musala Pria"}}]}